NORAD_CAT_ID,OBJECT_NAME,OBJECT_TYPE,EPOCH,MEAN_MOTION,ECCENTRICITY,INCLINATION,RA_OF_ASC_NODE,ARG_OF_PERICENTER,MEAN_ANOMALY,BSTAR,MEAN_MOTION_DOT,MEAN_MOTION_DDOT,TLE_LINE0,TLE_LINE1,TLE_LINE2,SEMIMAJOR_AXIS,PERIOD,APOGEE,PERIGEE,DECAYED
55296.0,STARLINK-5285,PAYLOAD,2023-07-04 15:58:13,14.98330077,0.0003056,70.0008,332.811,268.6124,91.4685,-6.1853e-05,-8.31e-06,0.0,0 STARLINK-5285,1 55296U 23010AD  23185.66542908 -.00000831  00000-0 -61853-4 0  9993,2 55296  70.0008 332.8110 0003056 268.6124  91.4685 14.98330077 26312,6950.193,96.107,574.182,569.934,0.0
55296.0,STARLINK-5285,PAYLOAD,2023-07-05 16:00:14,14.98326069,0.0002863,70.0003,330.2836,260.3809,99.7027,8.2865e-06,6e-08,0.0,0 STARLINK-5285,1 55296U 23010AD  23186.66683001  .00000006  00000-0  82865-5 0  9993,2 55296  70.0003 330.2836 0002863 260.3809  99.7027 14.98326069 26461,6950.205,96.107,574.06,570.08,0.0
55296.0,STARLINK-5285,PAYLOAD,2023-07-06 19:14:30,14.98332968,0.0003249,70.0005,327.4239,269.9982,90.0805,8.2128e-05,8.87e-06,0.0,0 STARLINK-5285,1 55296U 23010AD  23187.80174403  .00000887  00000-0  82128-4 0  9999,2 55296  70.0005 327.4239 0003249 269.9982  90.0805 14.98332968 26636,6950.184,96.107,574.307,569.791,0.0
55296.0,STARLINK-5285,PAYLOAD,2023-07-07 03:15:11,14.98323812,0.0003355,70.0005,326.5824,269.0013,91.0762,0.00013213,1.484e-05,0.0,0 STARLINK-5285,1 55296U 23010AD  23188.13554860  .00001484  00000-0  13213-3 0  9997,2 55296  70.0005 326.5824 0003355 269.0013  91.0762 14.98323812 26686,6950.212,96.107,574.409,569.745,0.0
55296.0,STARLINK-5285,PAYLOAD,2023-07-07 17:40:23,14.98333307,0.0003215,70.0005,325.0674,268.9579,91.1212,5.6845e-05,5.85e-06,0.0,0 STARLINK-5285,1 55296U 23010AD  23188.73638377  .00000585  00000-0  56845-4 0  9999,2 55296  70.0005 325.0674 0003215 268.9579  91.1212 14.98333307 26774,6950.183,96.107,574.282,569.813,0.0
55296.0,STARLINK-5285,PAYLOAD,2023-07-08 19:18:32,14.98348933,0.0003013,70.0008,322.3742,270.8099,89.2715,-0.0002537,-3.12e-05,0.0,0 STARLINK-5285,1 55296U 23010AD  23189.80453935 -.00003120  00000-0 -25370-3 0  9991,2 55296  70.0008 322.3742 0003013 270.8099  89.2715 14.98348933 26933,6950.134,96.106,574.093,569.905,0.0
55296.0,STARLINK-5285,PAYLOAD,2023-07-09 01:43:04,14.98335922,0.0003128,70.001,321.7017,266.2957,93.7845,-0.00017675,-2.202e-05,0.0,0 STARLINK-5285,1 55296U 23010AD  23190.07158504 -.00002202  00000-0 -17675-3 0  9995,2 55296  70.0010 321.7017 0003128 266.2957  93.7845 14.98335922 26975,6950.175,96.107,574.214,569.866,0.0
55296.0,STARLINK-5285,PAYLOAD,2023-07-09 17:44:24,14.98343977,0.0003058,70.0016,320.0159,278.8278,81.2534,0.00018087,2.067e-05,0.0,0 STARLINK-5285,1 55296U 23010AD  23190.73916888  .00002067  00000-0  18087-3 0  9990,2 55296  70.0016 320.0159 0003058 278.8278  81.2534 14.98343977 27075,6950.15,96.106,574.14,569.889,0.0
55296.0,STARLINK-5285,PAYLOAD,2023-07-10 01:45:04,14.9837722,0.0002622,70.0027,319.1766,274.807,85.279,-0.00068339,-8.247e-05,0.0,0 STARLINK-5285,1 55296U 23010AD  23191.07296517 -.00008247  00000-0 -68339-3 0  9991,2 55296  70.0027 319.1766 0002622 274.8070  85.2790 14.98377220 27124,6950.047,96.104,573.734,570.09,0.0
55296.0,STARLINK-5285,PAYLOAD,2023-07-10 09:45:45,14.98326607,0.0002479,70.0038,318.3392,252.7208,107.368,7.6928e-05,8.25e-06,0.0,0 STARLINK-5285,1 55296U 23010AD  23191.40677781  .00000825  00000-0  76928-4 0  9990,2 55296  70.0038 318.3392 0002479 252.7208 107.3680 14.98326607 27172,6950.203,96.107,573.791,570.345,0.0
55296.0,STARLINK-5285,PAYLOAD,2023-07-10 14:34:10,14.98322926,0.0002605,70.0024,317.8315,259.479,100.6076,-2.1962e-05,-3.55e-06,0.0,0 STARLINK-5285,1 55296U 23010AD  23191.60706327 -.00000355  00000-0 -21962-4 0  9999,2 55296  70.0024 317.8315 0002605 259.4790 100.6076 14.98322926 27206,6950.215,96.107,573.89,570.269,0.0
55296.0,STARLINK-5285,PAYLOAD,2023-07-12 01:49:07,14.98332868,0.0002774,70.0019,314.1262,275.2417,84.8425,-0.00015961,-1.997e-05,0.0,0 STARLINK-5285,1 55296U 23010AD  23193.07578257 -.00001997  00000-0 -15961-3 0  9995,2 55296  70.0019 314.1262 0002774 275.2417  84.8425 14.98332868 27421,6950.184,96.107,573.977,570.121,0.0
55296.0,STARLINK-5285,PAYLOAD,2023-07-13 16:16:21,14.98327029,0.0003173,70.0008,310.0887,258.5083,101.572,5.2427e-05,5.33e-06,0.0,0 STARLINK-5285,1 55296U 23010AD  23194.67802249  .00000533  00000-0  52427-4 0  9995,2 55296  70.0008 310.0887 0003173 258.5083 101.5720 14.98327029 27668,6950.202,96.107,574.272,569.862,0.0
55296.0,STARLINK-5285,PAYLOAD,2023-07-14 17:54:29,14.9833748,0.0003075,70.0007,307.3944,262.2327,97.8483,5.3324e-05,5.43e-06,0.0,0 STARLINK-5285,1 55296U 23010AD  23195.74617551  .00000543  00000-0  53324-4 0  9992,2 55296  70.0007 307.3944 0003075 262.2327  97.8483 14.98337480 27827,6950.17,96.107,574.172,569.898,0.0
55296.0,STARLINK-5285,PAYLOAD,2023-07-15 11:31:59,14.98325049,0.0003173,70.0005,305.5424,270.4061,89.6735,-4.4266e-05,-6.21e-06,0.0,0 STARLINK-5285,1 55296U 23010AD  23196.48054648 -.00000621  00000-0 -44266-4 0  9990,2 55296  70.0005 305.5424 0003173 270.4061  89.6735 14.98325049 27932,6950.208,96.107,574.279,569.868,0.0
55296.0,STARLINK-5285,PAYLOAD,2023-07-15 19:32:38,14.98332408,0.0003113,70.0005,304.7006,270.2411,89.8391,3.6312e-05,3.4e-06,0.0,0 STARLINK-5285,1 55296U 23010AD  23196.81433977  .00000340  00000-0  36312-4 0  9992,2 55296  70.0005 304.7006 0003113 270.2411  89.8391 14.98332408 27982,6950.185,96.107,574.214,569.887,0.0
55296.0,STARLINK-5285,PAYLOAD,2023-07-16 08:21:44,14.98320938,0.0002974,70.0008,303.3547,266.184,93.8979,5.7341e-05,5.91e-06,0.0,0 STARLINK-5285,1 55296U 23010AD  23197.34842623  .00000591  00000-0  57341-4 0  9996,2 55296  70.0008 303.3547 0002974 266.1840  93.8979 14.98320938 28066,6950.221,96.108,574.153,570.019,0.0
55296.0,STARLINK-5285,PAYLOAD,2023-07-17 16:24:24,14.98332832,0.000304,70.0007,299.9882,269.8599,90.2212,9.0003e-05,9.81e-06,0.0,0 STARLINK-5285,1 55296U 23010AD  23198.68361944  .00000981  00000-0  90003-4 0  9991,2 55296  70.0007 299.9882 0003040 269.8599  90.2212 14.98332832 28262,6950.184,96.107,574.162,569.936,0.0
55296.0,STARLINK-5285,PAYLOAD,2023-07-18 11:38:01,14.98324604,0.0003075,70.0007,297.9677,270.4916,89.5891,8.2613e-05,8.93e-06,0.0,0 STARLINK-5285,1 55296U 23010AD  23199.48474519  .00000893  00000-0  82613-4 0  9993,2 55296  70.0007 297.9677 0003075 270.4916  89.5891 14.98324604 28386,6950.21,96.107,574.212,569.937,0.0
55296.0,STARLINK-5285,PAYLOAD,2023-07-18 16:26:25,14.98331587,0.0002988,70.0008,297.4628,268.8765,91.2052,7.7153e-05,8.28e-06,0.0,0 STARLINK-5285,1 55296U 23010AD  23199.68502050  .00000828  00000-0  77153-4 0  9998,2 55296  70.0008 297.4628 0002988 268.8765  91.2052 14.98331587 28414,6950.188,96.107,574.13,569.976,0.0
55296.0,STARLINK-5285,PAYLOAD,2023-07-19 10:03:55,14.98323559,0.0002815,70.0016,295.6117,262.5174,97.5665,-6.4502e-05,-8.62e-06,0.0,0 STARLINK-5285,1 55296U 23010AD  23200.41938981 -.00000862  00000-0 -64502-4 0  9992,2 55296  70.0016 295.6117 0002815 262.5174  97.5665 14.98323559 28521,6950.213,96.107,574.034,570.121,0.0
55296.0,STARLINK-5285,PAYLOAD,2023-07-20 13:18:11,14.9833629,0.0003051,70.0007,292.7501,266.1573,93.9237,3.9815e-05,3.82e-06,0.0,0 STARLINK-5285,1 55296U 23010AD  23201.55429873  .00000382  00000-0  39815-4 0  9997,2 55296  70.0007 292.7501 0003051 266.1573  93.9237 14.98336290 28691,6950.173,96.107,574.159,569.918,0.0
55296.0,STARLINK-5285,PAYLOAD,2023-07-21 08:31:48,14.98329485,0.0003112,70.0006,290.7303,266.8926,93.1877,9.0434e-05,9.86e-06,0.0,0 STARLINK-5285,1 55296U 23010AD  23202.35541929  .00000986  00000-0  90434-4 0  9997,2 55296  70.0006 290.7303 0003112 266.8926  93.1877 14.98329485 28819,6950.194,96.107,574.222,569.897,0.0
55296.0,STARLINK-5285,PAYLOAD,2023-07-24 05:25:35,14.98325589,0.0003082,70.0,283.4924,268.1387,91.9419,4.141e-05,4.01e-06,0.0,0 STARLINK-5285,1 55296U 23010AD  23205.22610080  .00000401  00000-0  41410-4 0  9993,2 55296  70.0000 283.4924 0003082 268.1387  91.9419 14.98325589 29240,6950.207,96.107,574.214,569.929,0.0
55296.0,STARLINK-5285,PAYLOAD,2023-07-25 11:52:08,14.98327289,0.0003036,70.0001,280.2949,268.5685,91.5127,-2.5478e-05,-3.97e-06,0.0,0 STARLINK-5285,1 55296U 23010AD  23206.49454262 -.00000397  00000-0 -25478-4 0  9993,2 55296  70.0001 280.2949 0003036 268.5685  91.5127 14.98327289 30622,6950.201,96.107,574.176,569.956,0.0
55296.0,STARLINK-5285,PAYLOAD,2023-07-26 07:05:44,14.98333227,0.0003358,69.9993,278.2745,269.0522,91.0252,2.9275e-06,-5.8e-07,0.0,0 STARLINK-5285,1 55296U 23010AD  23207.29565721 -.00000058  00000-0  29275-5 0  9998,2 55296  69.9993 278.2745 0003358 269.0522  91.0252 14.98333227 30749,6950.183,96.107,574.382,569.714,0.0
55296.0,STARLINK-5285,PAYLOAD,2023-07-26 21:30:56,14.98348196,0.0003337,69.9992,276.7595,267.1259,92.9518,-0.00012232,-1.553e-05,0.0,0 STARLINK-5285,1 55296U 23010AD  23207.89648900 -.00001553  00000-0 -12232-3 0  9990,2 55296  69.9992 276.7595 0003337 267.1259  92.9518 14.98348196 30833,6950.137,96.106,574.321,569.682,0.0
55296.0,STARLINK-5285,PAYLOAD,2023-07-27 16:44:33,14.98334631,0.0003405,69.999,274.7395,268.3374,91.7395,2.4526e-05,2e-06,0.0,0 STARLINK-5285,1 55296U 23010AD  23208.69761160  .00000200  00000-0  24526-4 0  9999,2 55296  69.9990 274.7395 0003405 268.3374  91.7395 14.98334631 29763,6950.179,96.107,574.41,569.677,0.0
55296.0,STARLINK-5285,PAYLOAD,2023-07-27 21:32:58,14.98325466,0.0003071,69.9998,274.2331,274.4086,85.6722,-8.2661e-05,-1.079e-05,0.0,0 STARLINK-5285,1 55296U 23010AD  23208.89790155 -.00001079  00000-0 -82661-4 0  9998,2 55296  69.9998 274.2331 0003071 274.4086  85.6722 14.98325466 30981,6950.207,96.107,574.206,569.938,0.0
55296.0,STARLINK-5285,PAYLOAD,2023-07-28 08:45:55,14.98323414,0.0003132,69.9992,273.0558,264.9446,95.1355,-5.9655e-05,-8.05e-06,0.0,0 STARLINK-5285,1 55296U 23010AD  23209.36522186 -.00000805  00000-0 -59655-4 0  9991,2 55296  69.9992 273.0558 0003132 264.9446  95.1355 14.98323414 31053,6950.213,96.107,574.255,569.901,0.0
